{"type": "FeatureCollection", "features": [ {"type": "Feature", "properties": {"norad_id": 66849, "name": "STARLINK-36102", "group": "last-30-days", "lat": 32.01537169054071, "lon": 112.07944107158254, "alt_km": 351.4482387233393, "timestamp": "2025-12-21T07:34:33.302480+00:00", "meta": {"OBJECT_NAME": "STARLINK-36102", "OBJECT_ID": "2025-281B", "EPOCH": "2025-12-20T22:00:01.999584", "MEAN_MOTION": 15.72786912, "ECCENTRICITY": 0.00013977, "INCLINATION": 43.0008, "RA_OF_ASC_NODE": 72.3481, "ARG_OF_PERICENTER": 268.7957, "MEAN_ANOMALY": 41.7632, "EPHEMERIS_TYPE": 0, "CLASSIFICATION_TYPE": "U", "NORAD_CAT_ID": 66849, "ELEMENT_SET_NO": 999, "REV_AT_EPOCH": 270, "BSTAR": -0.015853015, "MEAN_MOTION_DOT": -0.01955955, "MEAN_MOTION_DDOT": 0}, "tle": {"line1": "1 66849U 25281B   25354.91668981 -.01955955  00000+0 -15853-1 0  9991", "line2": "2 66849  43.0008  72.3481 0001397 268.7957  41.7632 15.72786912  2709"}}, "geometry": {"type": "Point", "coordinates": [112.07944107158254, 32.01537169054071]}}, {"type": "Feature", "properties": {"norad_id": 66850, "name": "STARLINK-36105", "group": "last-30-days", "lat": 32.970170775337635, "lon": 114.04851502383815, "alt_km": 351.24241836743477, "timestamp": "2025-12-21T07:34:33.302489+00:00", "meta": {"OBJECT_NAME": "STARLINK-36105", "OBJECT_ID": "2025-281C", "EPOCH": "2025-12-20T22:00:01.999584", "MEAN_MOTION": 15.72788453, "ECCENTRICITY": 0.00013432, "INCLINATION": 43.0007, "RA_OF_ASC_NODE": 72.3434, "ARG_OF_PERICENTER": 272.1218, "MEAN_ANOMALY": 40.3549, "EPHEMERIS_TYPE": 0, "CLASSIFICATION_TYPE": "U", "NORAD_CAT_ID": 66850, "ELEMENT_SET_NO": 999, "REV_AT_EPOCH": 270, "BSTAR": -0.015894943, "MEAN_MOTION_DOT": -0.01960601, "MEAN_MOTION_DDOT": 0}, "tle": {"line1": "1 66850U 25281C   25354.91668981 -.01960601  00000+0 -15895-1 0  9993", "line2": "2 66850  43.0007  72.3434 0001343 272.1218  40.3549 15.72788453  2702"}}, "geometry": {"type": "Point", "coordinates": [114.04851502383815, 32.970170775337635]}}, {"type": "Feature", "properties": {"norad_id": 66851, "name": "STARLINK-36094", "group": "last-30-days", "lat": 33.892705827085486, "lon": 116.05753795794875, "alt_km": 351.2057640815174, "timestamp": "2025-12-21T07:34:33.302498+00:00", "meta": {"OBJECT_NAME": "STARLINK-36094", "OBJECT_ID": "2025-281D", "EPOCH": "2025-12-20T22:00:01.999584", "MEAN_MOTION": 15.72795502, "ECCENTRICITY": 0.00014064, "INCLINATION": 43.0008, "RA_OF_ASC_NODE": 72.3379, "ARG_OF_PERICENTER": 268.3975, "MEAN_ANOMALY": 45.9876, "EPHEMERIS_TYPE": 0, "CLASSIFICATION_TYPE": "U", "NORAD_CAT_ID": 66851, "ELEMENT_SET_NO": 999, "REV_AT_EPOCH": 270, "BSTAR": -0.015915833, "MEAN_MOTION_DOT": -0.01963459, "MEAN_MOTION_DDOT": 0}, "tle": {"line1": "1 66851U 25281D   25354.91668981 -.01963459  00000+0 -15916-1 0  9992", "line2": "2 66851  43.0008  72.3379 0001406 268.3975  45.9876 15.72795502  2706"}}, "geometry": {"type": "Point", "coordinates": [116.05753795794875, 33.892705827085486]}}, {"type": "Feature", "properties": {"norad_id": 66852, "name": "STARLINK-35992", "group": "last-30-days", "lat": 34.78249349747861, "lon": 118.11332703820537, "alt_km": 351.0254337234901, "timestamp": "2025-12-21T07:34:33.302508+00:00", "meta": {"OBJECT_NAME": "STARLINK-35992", "OBJECT_ID": "2025-281E", "EPOCH": "2025-12-20T22:00:01.999584", "MEAN_MOTION": 15.7278454, "ECCENTRICITY": 0.00014445, "INCLINATION": 43.0008, "RA_OF_ASC_NODE": 72.3339, "ARG_OF_PERICENTER": 272.9234, "MEAN_ANOMALY": 43.3826, "EPHEMERIS_TYPE": 0, "CLASSIFICATION_TYPE": "U", "NORAD_CAT_ID": 66852, "ELEMENT_SET_NO": 999, "REV_AT_EPOCH": 270, "BSTAR": -0.015781025, "MEAN_MOTION_DOT": -0.01947953, "MEAN_MOTION_DDOT": 0}, "tle": {"line1": "1 66852U 25281E   25354.91668981 -.01947953  00000+0 -15781-1 0  9994", "line2": "2 66852  43.0008  72.3339 0001444 272.9234  43.3826 15.72784540  2701"}}, "geometry": {"type": "Point", "coordinates": [118.11332703820537, 34.78249349747861]}}, {"type": "Feature", "properties": {"norad_id": 66853, "name": "STARLINK-35986", "group": "last-30-days", "lat": 35.636932377616496, "lon": 120.21263575861808, "alt_km": 351.01140617744295, "timestamp": "2025-12-21T07:34:33.302519+00:00", "meta": {"OBJECT_NAME": "STARLINK-35986", "OBJECT_ID": "2025-281F", "EPOCH": "2025-12-20T22:00:01.999584", "MEAN_MOTION": 15.72791579, "ECCENTRICITY": 0.0001547, "INCLINATION": 43.0008, "RA_OF_ASC_NODE": 72.3292, "ARG_OF_PERICENTER": 271.0014, "MEAN_ANOMALY": 47.2184, "EPHEMERIS_TYPE": 0, "CLASSIFICATION_TYPE": "U", "NORAD_CAT_ID": 66853, "ELEMENT_SET_NO": 999, "REV_AT_EPOCH": 270, "BSTAR": -0.015856586, "MEAN_MOTION_DOT": -0.01956814, "MEAN_MOTION_DDOT": 0}, "tle": {"line1": "1 66853U 25281F   25354.91668981 -.01956814  00000+0 -15857-1 0  9995", "line2": "2 66853  43.0008  72.3292 0001547 271.0014  47.2184 15.72791579  2700"}}, "geometry": {"type": "Point", "coordinates": [120.21263575861808, 35.636932377616496]}}, {"type": "Feature", "properties": {"norad_id": 66854, "name": "STARLINK-36087", "group": "last-30-days", "lat": 36.45351152520075, "lon": 122.35467080316353, "alt_km": 350.90687279515805, "timestamp": "2025-12-21T07:34:33.302530+00:00", "meta": {"OBJECT_NAME": "STARLINK-36087", "OBJECT_ID": "2025-281G", "EPOCH": "2025-12-20T22:00:01.999584", "MEAN_MOTION": 15.72789173, "ECCENTRICITY": 0.00015386, "INCLINATION": 43.0008, "RA_OF_ASC_NODE": 72.3241, "ARG_OF_PERICENTER": 270.4785, "MEAN_ANOMALY": 49.6592, "EPHEMERIS_TYPE": 0, "CLASSIFICATION_TYPE": "U", "NORAD_CAT_ID": 66854, "ELEMENT_SET_NO": 999, "REV_AT_EPOCH": 270, "BSTAR": -0.015826164, "MEAN_MOTION_DOT": -0.01953306, "MEAN_MOTION_DDOT": 0}, "tle": {"line1": "1 66854U 25281G   25354.91668981 -.01953306  00000+0 -15826-1 0  9995", "line2": "2 66854  43.0008  72.3241 0001538 270.4785  49.6592 15.72789173  2709"}}, "geometry": {"type": "Point", "coordinates": [122.35467080316353, 36.45351152520075]}}, {"type": "Feature", "properties": {"norad_id": 66855, "name": "STARLINK-36090", "group": "last-30-days", "lat": 37.23091138830328, "lon": 124.54208481493748, "alt_km": 350.75850451913266, "timestamp": "2025-12-21T07:34:33.302539+00:00", "meta": {"OBJECT_NAME": "STARLINK-36090", "OBJECT_ID": "2025-281H", "EPOCH": "2025-12-20T22:00:01.999584", "MEAN_MOTION": 15.72790089, "ECCENTRICITY": 0.00014889, "INCLINATION": 43.0007, "RA_OF_ASC_NODE": 72.3193, "ARG_OF_PERICENTER": 271.7938, "MEAN_ANOMALY": 50.2603, "EPHEMERIS_TYPE": 0, "CLASSIFICATION_TYPE": "U", "NORAD_CAT_ID": 66855, "ELEMENT_SET_NO": 999, "REV_AT_EPOCH": 258, "BSTAR": -0.015837156, "MEAN_MOTION_DOT": -0.01954534, "MEAN_MOTION_DDOT": 0}, "tle": {"line1": "1 66855U 25281H   25354.91668981 -.01954534  00000+0 -15837-1 0  9992", "line2": "2 66855  43.0007  72.3193 0001488 271.7938  50.2603 15.72790089  2588"}}, "geometry": {"type": "Point", "coordinates": [124.54208481493748, 37.23091138830328]}}, {"type": "Feature", "properties": {"norad_id": 66856, "name": "STARLINK-36072", "group": "last-30-days", "lat": 37.967248546772424, "lon": 126.77369039228807, "alt_km": 350.64922240002124, "timestamp": "2025-12-21T07:34:33.302548+00:00", "meta": {"OBJECT_NAME": "STARLINK-36072", "OBJECT_ID": "2025-281J", "EPOCH": "2025-12-20T22:00:01.999584", "MEAN_MOTION": 15.7279179, "ECCENTRICITY": 0.00013973, "INCLINATION": 43.0007, "RA_OF_ASC_NODE": 72.314, "ARG_OF_PERICENTER": 269.8948, "MEAN_ANOMALY": 54.0803, "EPHEMERIS_TYPE": 0, "CLASSIFICATION_TYPE": "U", "NORAD_CAT_ID": 66856, "ELEMENT_SET_NO": 999, "REV_AT_EPOCH": 270, "BSTAR": -0.015901821, "MEAN_MOTION_DOT": -0.01961645, "MEAN_MOTION_DDOT": 0}, "tle": {"line1": "1 66856U 25281J   25354.91668981 -.01961645  00000+0 -15902-1 0  9997", "line2": "2 66856  43.0007  72.3140 0001397 269.8948  54.0803 15.72791790  2707"}}, "geometry": {"type": "Point", "coordinates": [126.77369039228807, 37.967248546772424]}}, {"type": "Feature", "properties": {"norad_id": 66857, "name": "STARLINK-36083", "group": "last-30-days", "lat": 38.660530162910725, "lon": 129.05014215317365, "alt_km": 350.5128539440093, "timestamp": "2025-12-21T07:34:33.302558+00:00", "meta": {"OBJECT_NAME": "STARLINK-36083", "OBJECT_ID": "2025-281K", "EPOCH": "2025-12-20T22:00:01.999584", "MEAN_MOTION": 15.72790781, "ECCENTRICITY": 0.00014098, "INCLINATION": 43.0007, "RA_OF_ASC_NODE": 72.3091, "ARG_OF_PERICENTER": 273.8914, "MEAN_ANOMALY": 51.9999, "EPHEMERIS_TYPE": 0, "CLASSIFICATION_TYPE": "U", "NORAD_CAT_ID": 66857, "ELEMENT_SET_NO": 999, "REV_AT_EPOCH": 270, "BSTAR": -0.015885216, "MEAN_MOTION_DOT": -0.01959768, "MEAN_MOTION_DDOT": 0}, "tle": {"line1": "1 66857U 25281K   25354.91668981 -.01959768  00000+0 -15885-1 0  9991", "line2": "2 66857  43.0007  72.3091 0001409 273.8914  51.9999 15.72790781  2706"}}, "geometry": {"type": "Point", "coordinates": [129.05014215317365, 38.660530162910725]}}, {"type": "Feature", "properties": {"norad_id": 66858, "name": "STARLINK-35118", "group": "last-30-days", "lat": 39.30820235101877, "lon": 131.36827833551465, "alt_km": 350.4130352765342, "timestamp": "2025-12-21T07:34:33.302567+00:00", "meta": {"OBJECT_NAME": "STARLINK-35118", "OBJECT_ID": "2025-281L", "EPOCH": "2025-12-20T22:00:01.999584", "MEAN_MOTION": 15.7279304, "ECCENTRICITY": 0.00013769, "INCLINATION": 43.0006, "RA_OF_ASC_NODE": 72.3041, "ARG_OF_PERICENTER": 273.691, "MEAN_ANOMALY": 54.1149, "EPHEMERIS_TYPE": 0, "CLASSIFICATION_TYPE": "U", "NORAD_CAT_ID": 66858, "ELEMENT_SET_NO": 999, "REV_AT_EPOCH": 249, "BSTAR": -0.015898785, "MEAN_MOTION_DOT": -0.01961392, "MEAN_MOTION_DDOT": 0}, "tle": {"line1": "1 66858U 25281L   25354.91668981 -.01961392  00000+0 -15899-1 0  9993", "line2": "2 66858  43.0006  72.3041 0001376 273.6910  54.1149 15.72793040  2497"}}, "geometry": {"type": "Point", "coordinates": [131.36827833551465, 39.30820235101877]}}]}